{
  "type": "FeatureCollection",
  "features": [
    {
      "type": "Feature",
      "properties": {
        "norad_id": 66615,
        "name": "STARLINK-35988",
        "group": "last-30-days",
        "lat": -30.843802442852397,
        "lon": 136.00113856752014,
        "alt_km": 446.0460826729277,
        "timestamp": "2025-12-15T14:57:56.621153+00:00",
        "meta_object_name": "STARLINK-35988",
        "meta_object_id": "2025-270AD",
        "meta_epoch": "2025-12-14T20:00:06.000192",
        "meta_mean_motion": 15.43621603,
        "meta_eccentricity": 7.197e-05,
        "meta_inclination": 42.9995,
        "meta_ra_of_asc_node": 180.4194,
        "meta_arg_of_pericenter": 289.0241,
        "meta_mean_anomaly": 310.3177,
        "meta_ephemeris_type": 0,
        "meta_classification_type": "U",
        "meta_norad_cat_id": 66615,
        "meta_element_set_no": 999,
        "meta_rev_at_epoch": 457,
        "meta_bstar": -0.042711852,
        "meta_mean_motion_dot": -0.01777293,
        "meta_mean_motion_ddot": 0,
        "tle_line1": "1 66615U 25270AD  25348.83340278 -.01777293  00000+0 -42712-1 0  9991",
        "tle_line2": "2 66615  42.9995 180.4194 0000719 289.0241 310.3177 15.43621603  4573"
      },
      "geometry": {
        "type": "Point",
        "coordinates": [
          136.00113856752014,
          -30.843802442852397
        ]
      }
    },
    {
      "type": "Feature",
      "properties": {
        "norad_id": 66616,
        "name": "STARLINK-35391",
        "group": "last-30-days",
        "lat": -1.3604788510946557,
        "lon": 174.2759518656054,
        "alt_km": 414.7945968460899,
        "timestamp": "2025-12-15T14:57:56.621168+00:00",
        "meta_object_name": "STARLINK-35391",
        "meta_object_id": "2025-270AE",
        "meta_epoch": "2025-12-14T21:58:08.755968",
        "meta_mean_motion": 15.50582256,
        "meta_eccentricity": 0.00017039,
        "meta_inclination": 42.9993,
        "meta_ra_of_asc_node": 179.88,
        "meta_arg_of_pericenter": 264.7617,
        "meta_mean_anomaly": 95.3049,
        "meta_ephemeris_type": 0,
        "meta_classification_type": "U",
        "meta_norad_cat_id": 66616,
        "meta_element_set_no": 999,
        "meta_rev_at_epoch": 479,
        "meta_bstar": 0.00061543024,
        "meta_mean_motion_dot": 0.00035933,
        "meta_mean_motion_ddot": 0,
        "tle_line1": "1 66616U 25270AE  25348.91537912  .00035933  00000+0  61543-3 0  9994",
        "tle_line2": "2 66616  42.9993 179.8800 0001703 264.7617  95.3049 15.50582256  4799"
      },
      "geometry": {
        "type": "Point",
        "coordinates": [
          174.2759518656054,
          -1.3604788510946557
        ]
      }
    },
    {
      "type": "Feature",
      "properties": {
        "norad_id": 66617,
        "name": "STARLINK-35940",
        "group": "last-30-days",
        "lat": -33.46580791848751,
        "lon": 143.78556584490124,
        "alt_km": 446.6383216881459,
        "timestamp": "2025-12-15T14:57:56.621177+00:00",
        "meta_object_name": "STARLINK-35940",
        "meta_object_id": "2025-271A",
        "meta_epoch": "2025-12-14T20:00:06.000192",
        "meta_mean_motion": 15.44821755,
        "meta_eccentricity": 0.00015763,
        "meta_inclination": 53.1591,
        "meta_ra_of_asc_node": 177.2385,
        "meta_arg_of_pericenter": 88.0958,
        "meta_mean_anomaly": 156.4416,
        "meta_ephemeris_type": 0,
        "meta_classification_type": "U",
        "meta_norad_cat_id": 66617,
        "meta_element_set_no": 999,
        "meta_rev_at_epoch": 457,
        "meta_bstar": -0.047712091,
        "meta_mean_motion_dot": -0.02023584,
        "meta_mean_motion_ddot": 0,
        "tle_line1": "1 66617U 25271A   25348.83340278 -.02023584  00000+0 -47712-1 0  9997",
        "tle_line2": "2 66617  53.1591 177.2385 0001576  88.0958 156.4416 15.44821755  4577"
      },
      "geometry": {
        "type": "Point",
        "coordinates": [
          143.78556584490124,
          -33.46580791848751
        ]
      }
    },
    {
      "type": "Feature",
      "properties": {
        "norad_id": 66618,
        "name": "STARLINK-35970",
        "group": "last-30-days",
        "lat": 27.678171328731914,
        "lon": -163.51112356691445,
        "alt_km": 414.887681217574,
        "timestamp": "2025-12-15T14:57:56.621186+00:00",
        "meta_object_name": "STARLINK-35970",
        "meta_object_id": "2025-271B",
        "meta_epoch": "2025-12-14T20:00:06.000192",
        "meta_mean_motion": 15.49275438,
        "meta_eccentricity": 8.144e-05,
        "meta_inclination": 53.1594,
        "meta_ra_of_asc_node": 177.1109,
        "meta_arg_of_pericenter": 65.9025,
        "meta_mean_anomaly": 239.9687,
        "meta_ephemeris_type": 0,
        "meta_classification_type": "U",
        "meta_norad_cat_id": 66618,
        "meta_element_set_no": 999,
        "meta_rev_at_epoch": 458,
        "meta_bstar": 0.00089142367,
        "meta_mean_motion_dot": 0.00049384,
        "meta_mean_motion_ddot": 0,
        "tle_line1": "1 66618U 25271B   25348.83340278  .00049384  00000+0  89142-3 0  9995",
        "tle_line2": "2 66618  53.1594 177.1109 0000814  65.9025 239.9687 15.49275438  4581"
      },
      "geometry": {
        "type": "Point",
        "coordinates": [
          -163.51112356691445,
          27.678171328731914
        ]
      }
    },
    {
      "type": "Feature",
      "properties": {
        "norad_id": 66619,
        "name": "STARLINK-35951",
        "group": "last-30-days",
        "lat": -8.135545898028122,
        "lon": 167.27438079961445,
        "alt_km": 420.58103942044363,
        "timestamp": "2025-12-15T14:57:56.621196+00:00",
        "meta_object_name": "STARLINK-35951",
        "meta_object_id": "2025-271C",
        "meta_epoch": "2025-12-14T20:00:06.000192",
        "meta_mean_motion": 15.4927561,
        "meta_eccentricity": 4.385e-05,
        "meta_inclination": 53.1599,
        "meta_ra_of_asc_node": 177.2062,
        "meta_arg_of_pericenter": 91.1098,
        "meta_mean_anomaly": 169.104,
        "meta_ephemeris_type": 0,
        "meta_classification_type": "U",
        "meta_norad_cat_id": 66619,
        "meta_element_set_no": 999,
        "meta_rev_at_epoch": 458,
        "meta_bstar": 0.0009109851,
        "meta_mean_motion_dot": 0.00050485,
        "meta_mean_motion_ddot": 0,
        "tle_line1": "1 66619U 25271C   25348.83340278  .00050485  00000+0  91099-3 0  9994",
        "tle_line2": "2 66619  53.1599 177.2062 0000438  91.1098 169.1040 15.49275610  4588"
      },
      "geometry": {
        "type": "Point",
        "coordinates": [
          167.27438079961445,
          -8.135545898028122
        ]
      }
    },
    {
      "type": "Feature",
      "properties": {
        "norad_id": 66620,
        "name": "STARLINK-35936",
        "group": "last-30-days",
        "lat": -12.699238761782086,
        "lon": 163.71353991808613,
        "alt_km": 420.8731678746517,
        "timestamp": "2025-12-15T14:57:56.621205+00:00",
        "meta_object_name": "STARLINK-35936",
        "meta_object_id": "2025-271D",
        "meta_epoch": "2025-12-14T20:00:06.000192",
        "meta_mean_motion": 15.49274646,
        "meta_eccentricity": 9.725e-05,
        "meta_inclination": 53.1599,
        "meta_ra_of_asc_node": 177.2194,
        "meta_arg_of_pericenter": 59.5829,
        "meta_mean_anomaly": 194.8803,
        "meta_ephemeris_type": 0,
        "meta_classification_type": "U",
        "meta_norad_cat_id": 66620,
        "meta_element_set_no": 999,
        "meta_rev_at_epoch": 457,
        "meta_bstar": 0.0008947211,
        "meta_mean_motion_dot": 0.00049568,
        "meta_mean_motion_ddot": 0,
        "tle_line1": "1 66620U 25271D   25348.83340278  .00049568  00000+0  89472-3 0  9998",
        "tle_line2": "2 66620  53.1599 177.2194 0000972  59.5829 194.8803 15.49274646  4578"
      },
      "geometry": {
        "type": "Point",
        "coordinates": [
          163.71353991808613,
          -12.699238761782086
        ]
      }
    },
    {
      "type": "Feature",
      "properties": {
        "norad_id": 66621,
        "name": "STARLINK-35847",
        "group": "last-30-days",
        "lat": 30.257456200424336,
        "lon": -160.74057093224798,
        "alt_km": 414.5583298354504,
        "timestamp": "2025-12-15T14:57:56.621214+00:00",
        "meta_object_name": "STARLINK-35847",
        "meta_object_id": "2025-271E",
        "meta_epoch": "2025-12-14T20:00:06.000192",
        "meta_mean_motion": 15.49282904,
        "meta_eccentricity": 6.441e-05,
        "meta_inclination": 53.1594,
        "meta_ra_of_asc_node": 177.1029,
        "meta_arg_of_pericenter": 65.5878,
        "meta_mean_anomaly": 243.8146,
        "meta_ephemeris_type": 0,
        "meta_classification_type": "U",
        "meta_norad_cat_id": 66621,
        "meta_element_set_no": 999,
        "meta_rev_at_epoch": 458,
        "meta_bstar": 0.0007806442,
        "meta_mean_motion_dot": 0.00043168,
        "meta_mean_motion_ddot": 0,
        "tle_line1": "1 66621U 25271E   25348.83340278  .00043168  00000+0  78064-3 0  9994",
        "tle_line2": "2 66621  53.1594 177.1029 0000644  65.5878 243.8146 15.49282904  4589"
      },
      "geometry": {
        "type": "Point",
        "coordinates": [
          -160.74057093224798,
          30.257456200424336
        ]
      }
    }
  ]
}